FGN-100-D2              
1 66299U 25248G   26068.00382769  .00006346  00000+0  30466-3 0  9990
2 66299  45.4006 298.0063 0005270 203.9196 156.1446 15.19697424 19279
FLOCK 4H-1              
1 66704U 25276AQ  26068.64189615  .00007365  00000+0  35145-3 0  9998
2 66704  97.4247 143.9566 0001009 342.9281  17.1919 15.19357425 15311
